OBJECT_NAME,OBJECT_ID,EPOCH,MEAN_MOTION,ECCENTRICITY,INCLINATION,RA_OF_ASC_NODE,ARG_OF_PERICENTER,MEAN_ANOMALY,EPHEMERIS_TYPE,CLASSIFICATION_TYPE,NORAD_CAT_ID,ELEMENT_SET_NO,REV_AT_EPOCH,BSTAR,MEAN_MOTION_DOT,MEAN_MOTION_DDOT
INTELSAT 902 (IS-902),2001-039A,2026-06-10T05:22:38.631936,1.00272538,.0004491,6.1006,71.8681,3.3514,213.9202,0,U,26900,999,9062,0,-.268E-5,0
INTELSAT 904 (IS-904),2002-007A,2026-06-10T01:09:55.984032,1.00272517,.0006669,6.9013,69.2690,1.5212,173.6141,0,U,27380,999,5169,0,-.21E-5,0
DIRECTV 5 (TEMPO 1),2002-023A,2026-06-10T05:55:25.959072,1.00271489,.0003296,4.8592,75.3954,14.9716,146.9980,0,U,27426,999,8805,0,-.41E-6,0
INTELSAT 905 (IS-905),2002-027A,2026-06-10T10:19:38.720064,1.00271189,.0003905,6.7358,69.8797,16.3553,190.2515,0,U,27438,999,5129,0,.108E-5,0
GALAXY 3C (G-3C),2002-030A,2026-06-10T07:42:23.701824,1.00271349,.0001695,3.7124,78.0665,32.8303,168.5370,0,U,27445,999,4642,0,-.136E-5,0
INTELSAT 906 (IS-906),2002-041A,2026-06-10T05:02:32.475840,1.00271538,.00046633,5.7858,73.0072,359.9055,325.4249,0,U,27513,999,8695,0,.29E-6,0
GALAXY 13 (HORIZONS-1),2003-044A,2026-06-10T09:21:38.611008,1.00274176,.0002119,1.4025,83.9430,352.4142,172.8076,0,U,27954,999,4650,0,.15E-5,0
INTELSAT 10-02,2004-022A,2026-06-10T09:51:48.453408,1.00269703,.0000197,0.0147,325.8765,212.9419,226.8974,0,U,28358,999,8048,0,.6E-7,0
DIRECTV 8,2005-019A,2026-06-10T07:35:36.616128,1.00271740,.0002903,0.0163,25.6167,56.9936,170.9242,0,U,28659,999,7700,0,.19E-6,0
GALAXY 28 (G-28),2005-022A,2026-06-10T08:01:44.346720,1.00272063,.000285,3.2818,79.0158,356.6327,276.3797,0,U,28702,999,5190,0,-.183E-5,0
GALAXY 16 (G-16),2006-023A,2026-06-10T07:41:16.308960,1.00269812,.0002441,0.0105,54.5462,30.2916,190.1563,0,U,29236,999,7290,0,0,0
DIRECTV 9S,2006-043A,2026-06-10T07:40:38.870112,1.00271159,.0004958,2.4021,80.9833,8.3577,183.3177,0,U,29494,999,5131,0,-.96E-6,0
GALAXY 17 (G-17),2007-016B,2026-06-10T06:02:32.777664,1.00270954,.00048062,2.9537,79.9863,17.6904,166.5840,0,U,31307,999,6973,0,-.189E-5,0
INTELSAT 11 (IS-11),2007-044B,2026-06-10T05:28:44.994720,0.99053397,.0001986,3.5464,78.7522,86.0187,332.4247,0,U,32253,999,6838,0,-.253E-5,0
HORIZONS-2,2007-063B,2026-06-10T06:05:50.171424,1.00271044,.00038893,2.5833,80.7093,356.9271,198.6722,0,U,32388,999,6774,0,-.236E-5,0
DIRECTV 11,2008-013A,2026-06-10T07:41:16.308960,1.00269620,.0000221,0.0189,218.9016,188.8564,227.0638,0,U,32729,999,4552,0,-.108E-5,0
GALAXY 18 (G-18),2008-024A,2026-06-10T10:11:38.779296,1.00272636,.0003111,0.0186,316.4028,135.0849,197.2167,0,U,32951,999,4578,0,.42E-6,0
INTELSAT 25 (IS-25),2008-034A,2026-06-10T08:52:38.883072,0.99036693,.0002975,2.6909,80.4459,51.6458,51.7696,0,U,33153,999,6562,0,-.262E-5,0
GALAXY 19 (G-19),2008-045A,2026-06-10T07:41:53.751264,1.00270983,.0002656,0.0139,277.2517,161.6400,198.2761,0,U,33376,999,6483,0,-.122E-5,0
FM-5,2009-034A,2026-06-10T07:44:53.463264,1.00270705,.0000652,0.0175,292.9967,1.3311,354.4362,0,U,35493,999,4657,0,-.183E-5,0
INTELSAT 14 (IS-14),2009-064A,2026-06-10T07:56:37.339008,1.00269898,.0002728,0.0171,347.6386,109.2328,235.9805,0,U,36097,999,6053,0,-.256E-5,0
INTELSAT 15 (IS-15),2009-067A,2026-06-10T10:16:23.875104,1.00270745,.0002188,0.0167,354.7930,89.0685,54.1774,0,U,36106,999,4116,0,-.167E-5,0
DIRECTV 12,2009-075A,2026-06-10T05:57:33.254784,1.00268056,.0000109,0.0475,139.6915,293.2739,172.3118,0,U,36131,999,4648,0,-.85E-6,0
INTELSAT 16 (IS-16),2010-006A,2026-06-10T07:47:45.686976,1.00269318,.0002115,0.0079,326.9433,132.6639,199.8214,0,U,36397,999,5958,0,-.227E-5,0
XM-5,2010-053A,2026-06-10T10:45:38.663424,1.00269684,.0002978,0.0649,273.7104,284.6234,106.6885,0,U,37185,999,5741,0,-.5E-7,0
INTELSAT 17 (IS-17),2010-065B,2026-06-10T11:14:38.628096,1.00272832,.0002541,0.0097,125.3619,323.6570,44.4737,0,U,37238,999,5318,0,.16E-6,0
INTELSAT 28 (IS-28),2011-016A,2026-06-10T08:00:29.468160,1.00271753,.0003728,1.7876,82.7052,1.5407,262.8701,0,U,37392,999,5321,0,-.208E-5,0
INTELSAT 18 (IS-18),2011-056A,2026-06-09T21:02:14.758944,1.00272225,.00020989,0.0170,310.4216,144.0429,299.3507,0,U,37834,999,5373,0,.7E-6,0
INTELSAT 22 (IS-22),2012-011A,2026-06-10T10:58:38.906400,1.00272209,.00015,0.0121,332.2386,101.6989,61.6205,0,U,38098,999,712,0,-.41E-6,0
INTELSAT 19 (IS-19),2012-030A,2026-06-10T11:09:38.704320,1.00271863,.0002987,0.0140,330.1636,117.4538,144.6260,0,U,38356,999,5038,0,-.39E-6,0
INTELSAT 20 (IS-20),2012-043A,2026-06-10T11:14:38.628096,1.00257624,.0001347,0.0080,69.1518,75.1399,351.6991,0,U,38740,999,5068,0,-.4E-7,0
