INTELSAT 902 (IS-902)   
1 26900U 01039A   26161.22405824 -.00000268  00000+0  00000+0 0  9998
2 26900   6.1006  71.8681 0004491   3.3514 213.9202  1.00272538 90621
INTELSAT 904 (IS-904)   
1 27380U 02007A   26161.04856463 -.00000210  00000+0  00000+0 0  9993
2 27380   6.9013  69.2690 0006669   1.5212 173.6141  1.00272517 51690
DIRECTV 5 (TEMPO 1)     
1 27426U 02023A   26161.24682823 -.00000041  00000+0  00000+0 0  9993
2 27426   4.8592  75.3954 0003296  14.9716 146.9980  1.00271489 88052
INTELSAT 905 (IS-905)   
1 27438U 02027A   26161.43030926  .00000108  00000+0  00000+0 0  9995
2 27438   6.7358  69.8797 0003905  16.3553 190.2515  1.00271189 51290
GALAXY 3C (G-3C)        
1 27445U 02030A   26161.32110766 -.00000136  00000+0  00000+0 0  9998
2 27445   3.7124  78.0665 0001695  32.8303 168.5370  1.00271349 46426
INTELSAT 906 (IS-906)   
1 27513U 02041A   26161.21009810  .00000029  00000+0  00000+0 0  9991
2 27513   5.7858  73.0072 0004663 359.9055 325.4249  1.00271538 86951
GALAXY 13 (HORIZONS-1)  
1 27954U 03044A   26161.39003022  .00000150  00000+0  00000+0 0  9997
2 27954   1.4025  83.9430 0002119 352.4142 172.8076  1.00274176 46506
INTELSAT 10-02          
1 28358U 04022A   26161.41097747  .00000006  00000+0  00000+0 0  9993
2 28358   0.0147 325.8765 0000197 212.9419 226.8974  1.00269703 80487
DIRECTV 8               
1 28659U 05019A   26161.31639602  .00000019  00000+0  00000+0 0  9999
2 28659   0.0163  25.6167 0002903  56.9936 170.9242  1.00271740 77002
GALAXY 28 (G-28)        
1 28702U 05022A   26161.33454105 -.00000183  00000+0  00000+0 0  9990
2 28702   3.2818  79.0158 0002850 356.6327 276.3797  1.00272063 51907
GALAXY 16 (G-16)        
1 29236U 06023A   26161.32032765  .00000000  00000+0  00000+0 0  9995
2 29236   0.0105  54.5462 0002441  30.2916 190.1563  1.00269812 72900
DIRECTV 9S              
1 29494U 06043A   26161.31989433 -.00000096  00000+0  00000+0 0  9991
2 29494   2.4021  80.9833 0004958   8.3577 183.3177  1.00271159 51312
GALAXY 17 (G-17)        
1 31307U 07016B   26161.25176826 -.00000189  00000+0  00000+0 0  9998
2 31307   2.9537  79.9863 0004806  17.6904 166.5840  1.00270954 69732
INTELSAT 11 (IS-11)     
1 32253U 07044B   26161.22829855 -.00000253  00000+0  00000+0 0  9996
2 32253   3.5464  78.7522 0001986  86.0187 332.4247  0.99053397 68389
HORIZONS-2              
1 32388U 07063B   26161.25405291 -.00000236  00000+0  00000+0 0  9994
2 32388   2.5833  80.7093 0003889 356.9271 198.6722  1.00271044 67743
DIRECTV 11              
1 32729U 08013A   26161.32032765 -.00000108  00000+0  00000+0 0  9997
2 32729   0.0189 218.9016 0000221 188.8564 227.0638  1.00269620 45525
GALAXY 18 (G-18)        
1 32951U 08024A   26161.42475439  .00000042  00000+0  00000+0 0  9992
2 32951   0.0186 316.4028 0003111 135.0849 197.2167  1.00272636 45781
INTELSAT 25 (IS-25)     
1 33153U 08034A   26161.36989448 -.00000262  00000+0  00000+0 0  9996
2 33153   2.6909  80.4459 0002975  51.6458  51.7696  0.99036693 65623
GALAXY 19 (G-19)        
1 33376U 08045A   26161.32076101 -.00000122  00000+0  00000+0 0  9999
2 33376   0.0139 277.2517 0002656 161.6400 198.2761  1.00270983 64830
FM-5                    
1 35493U 09034A   26161.32284101 -.00000183  00000+0  00000+0 0  9998
2 35493   0.0175 292.9967 0000652   1.3311 354.4362  1.00270705 46576
INTELSAT 14 (IS-14)     
1 36097U 09064A   26161.33098772 -.00000256  00000+0  00000+0 0  9991
2 36097   0.0171 347.6386 0002728 109.2328 235.9805  1.00269898 60536
INTELSAT 15 (IS-15)     
1 36106U 09067A   26161.42805411 -.00000167  00000+0  00000+0 0  9992
2 36106   0.0167 354.7930 0002188  89.0685  54.1774  1.00270745 41164
DIRECTV 12              
1 36131U 09075A   26161.24830156 -.00000085  00000+0  00000+0 0  9992
2 36131   0.0475 139.6915 0000109 293.2739 172.3118  1.00268056 46484
INTELSAT 16 (IS-16)     
1 36397U 10006A   26161.32483434 -.00000227  00000+0  00000+0 0  9992
2 36397   0.0079 326.9433 0002115 132.6639 199.8214  1.00269318 59586
XM-5                    
1 37185U 10053A   26161.44836416 -.00000005  00000+0  00000+0 0  9999
2 37185   0.0649 273.7104 0002978 284.6234 106.6885  1.00269684 57411
INTELSAT 17 (IS-17)     
1 37238U 10065B   26161.46850264  .00000016  00000+0  00000+0 0  9991
2 37238   0.0097 125.3619 0002541 323.6570  44.4737  1.00272832 53187
INTELSAT 28 (IS-28)     
1 37392U 11016A   26161.33367440 -.00000208  00000+0  00000+0 0  9998
2 37392   1.7876  82.7052 0003728   1.5407 262.8701  1.00271753 53219
INTELSAT 18 (IS-18)     
1 37834U 11056A   26160.87655971  .00000070  00000+0  00000+0 0  9996
2 37834   0.0170 310.4216 0002098 144.0429 299.3507  1.00272225 53739
INTELSAT 22 (IS-22)     
1 38098U 12011A   26161.45739475 -.00000041  00000+0  00000+0 0  9997
2 38098   0.0121 332.2386 0001500 101.6989  61.6205  1.00272209  7124
INTELSAT 19 (IS-19)     
1 38356U 12030A   26161.46503130 -.00000039  00000+0  00000+0 0  9990
2 38356   0.0140 330.1636 0002987 117.4538 144.6260  1.00271863 50386
INTELSAT 20 (IS-20)     
1 38740U 12043A   26161.46850264 -.00000004  00000+0  00000+0 0  9996
2 38740   0.0080  69.1518 0001347  75.1399 351.6991  1.00257624 50681
